DUPLEX                  
1 66906U 98067XS  26098.49161305  .00027509  00000+0  36179-3 0  9992
2 66906  51.6285 280.1644 0003546 257.3440 102.7156 15.58258322 19771
ISS OBJECT XT           
1 66907U 98067XT  26098.84614494  .00301366  00000+0  13446-2 0  9991
2 66907  51.6214 270.4728 0008369 277.8319  82.1733 15.82828935 19939
ISS OBJECT XU           
1 66908U 98067XU  26098.65063671  .00301142  00000+0  13242-2 0  9992
2 66908  51.6211 271.4132 0008394 274.9512  85.0533 15.83138515 19904
SILVERSAT               
1 66909U 98067XV  26098.87158125  .00547090  12918-3  15715-2 0  9992
2 66909  51.6170 268.3580 0010677 285.2762  74.7064 15.92453631 19969
ISS OBJECT XW           
1 66910U 98067XW  26098.86674538  .00245268  00000+0  12367-2 0  9991
2 66910  51.6198 270.6025 0008311 272.5207  87.4843 15.80341100 19933
ISS OBJECT XX           
1 66911U 98067XX  26098.74105162  .01798451  25717-2  18542-2 0  9995
2 66911  51.6098 266.6707 0013297 291.2633  68.6961 16.10408416 19968
ISS OBJECT XY           
1 66912U 98067XY  26098.87654019  .00107568  00000+0  84837-3 0  9998
2 66912  51.6252 273.7143 0005572 269.5451  90.4908 15.70570969 19880
KNACKSAT-2              
1 67683U 98067XZ  26098.77636809  .00036179  00000+0  54295-3 0  9994
2 67683  51.6305 282.0678 0010872 298.0155  61.9735 15.54485093  9467
CORAL                   
1 67684U 98067YA  26098.80298254  .00085187  00000+0  10265-2 0  9998
2 67684  51.6284 280.7446 0014187 289.1392  70.8065 15.59943936  9486
GXIBA-1                 
1 67685U 98067YB  26098.76206751  .00040949  00000+0  59755-3 0  9990
2 67685  51.6304 281.9723 0012824 294.9218  65.0440 15.55165607  9466
UITMSAT-2               
1 67686U 98067YC  26098.86813607  .00049340  00000+0  68603-3 0  9992
2 67686  51.6303 281.1836 0009865 271.3376  88.6486 15.56431458  9482
HMU-SAT2                
1 67687U 98067YD  26098.76889876  .00039619  00000+0  58569-3 0  9991
2 67687  51.6310 282.0215 0009267 273.3550  86.6381 15.54871884  9384
LEOPARD                 
1 67688U 98067YE  26098.87837377  .00042408  00000+0  60389-3 0  9996
2 67688  51.6302 281.2523 0009494 271.8691  88.1213 15.55857474  9404
CREW DRAGON 12          
1 67796U 26031A   26098.97303556  .00006802  00000+0  13221-3 0  9997
2 67796  51.6330 282.6294 0006365 289.6160  70.4141 15.48838774561048
PROGRESS-MS 33          
1 68319U 26058A   26098.97303556  .00006802  00000+0  13221-3 0  9998
2 68319  51.6330 282.6294 0006365 289.6160  70.4141 15.48838774  2556
