[{"OBJECT_NAME":"DUPLEX","OBJECT_ID":"1998-067XS","EPOCH":"2026-04-08T11:47:55.367520","MEAN_MOTION":15.58258322,"ECCENTRICITY":0.00035465,"INCLINATION":51.6285,"RA_OF_ASC_NODE":280.1644,"ARG_OF_PERICENTER":257.344,"MEAN_ANOMALY":102.7156,"EPHEMERIS_TYPE":0,"CLASSIFICATION_TYPE":"U","NORAD_CAT_ID":66906,"ELEMENT_SET_NO":999,"REV_AT_EPOCH":1977,"BSTAR":0.00036179068,"MEAN_MOTION_DOT":0.00027509,"MEAN_MOTION_DDOT":0},{"OBJECT_NAME":"ISS OBJECT XT","OBJECT_ID":"1998-067XT","EPOCH":"2026-04-08T20:18:26.922816","MEAN_MOTION":15.82828935,"ECCENTRICITY":0.00083693,"INCLINATION":51.6214,"RA_OF_ASC_NODE":270.4728,"ARG_OF_PERICENTER":277.8319,"MEAN_ANOMALY":82.1733,"EPHEMERIS_TYPE":0,"CLASSIFICATION_TYPE":"U","NORAD_CAT_ID":66907,"ELEMENT_SET_NO":999,"REV_AT_EPOCH":1993,"BSTAR":0.0013445904,"MEAN_MOTION_DOT":0.00301366,"MEAN_MOTION_DDOT":0},{"OBJECT_NAME":"ISS OBJECT XU","OBJECT_ID":"1998-067XU","EPOCH":"2026-04-08T15:36:55.011744","MEAN_MOTION":15.83138515,"ECCENTRICITY":0.00083949,"INCLINATION":51.6211,"RA_OF_ASC_NODE":271.4132,"ARG_OF_PERICENTER":274.9512,"MEAN_ANOMALY":85.0533,"EPHEMERIS_TYPE":0,"CLASSIFICATION_TYPE":"U","NORAD_CAT_ID":66908,"ELEMENT_SET_NO":999,"REV_AT_EPOCH":1990,"BSTAR":0.0013241948,"MEAN_MOTION_DOT":0.00301142,"MEAN_MOTION_DDOT":0},{"OBJECT_NAME":"SILVERSAT","OBJECT_ID":"1998-067XV","EPOCH":"2026-04-08T20:55:04.620000","MEAN_MOTION":15.92453631,"ECCENTRICITY":0.0010677,"INCLINATION":51.617,"RA_OF_ASC_NODE":268.358,"ARG_OF_PERICENTER":285.2762,"MEAN_ANOMALY":74.7064,"EPHEMERIS_TYPE":0,"CLASSIFICATION_TYPE":"U","NORAD_CAT_ID":66909,"ELEMENT_SET_NO":999,"REV_AT_EPOCH":1996,"BSTAR":0.0015715,"MEAN_MOTION_DOT":0.0054709,"MEAN_MOTION_DDOT":0.00012918},{"OBJECT_NAME":"ISS OBJECT XW","OBJECT_ID":"1998-067XW","EPOCH":"2026-04-08T20:48:06.800832","MEAN_MOTION":15.803411,"ECCENTRICITY":0.0008311,"INCLINATION":51.6198,"RA_OF_ASC_NODE":270.6025,"ARG_OF_PERICENTER":272.5207,"MEAN_ANOMALY":87.4843,"EPHEMERIS_TYPE":0,"CLASSIFICATION_TYPE":"U","NORAD_CAT_ID":66910,"ELEMENT_SET_NO":999,"REV_AT_EPOCH":1993,"BSTAR":0.0012367,"MEAN_MOTION_DOT":0.00245268,"MEAN_MOTION_DDOT":0},{"OBJECT_NAME":"ISS OBJECT XX","OBJECT_ID":"1998-067XX","EPOCH":"2026-04-08T17:47:06.859968","MEAN_MOTION":16.10408416,"ECCENTRICITY":0.00132977,"INCLINATION":51.6098,"RA_OF_ASC_NODE":266.6707,"ARG_OF_PERICENTER":291.2633,"MEAN_ANOMALY":68.6961,"EPHEMERIS_TYPE":0,"CLASSIFICATION_TYPE":"U","NORAD_CAT_ID":66911,"ELEMENT_SET_NO":999,"REV_AT_EPOCH":1996,"BSTAR":0.0018542226,"MEAN_MOTION_DOT":0.01798451,"MEAN_MOTION_DDOT":0.0025716618},{"OBJECT_NAME":"ISS OBJECT XY","OBJECT_ID":"1998-067XY","EPOCH":"2026-04-08T21:02:13.072416","MEAN_MOTION":15.70570969,"ECCENTRICITY":0.0005572,"INCLINATION":51.6252,"RA_OF_ASC_NODE":273.7143,"ARG_OF_PERICENTER":269.5451,"MEAN_ANOMALY":90.4908,"EPHEMERIS_TYPE":0,"CLASSIFICATION_TYPE":"U","NORAD_CAT_ID":66912,"ELEMENT_SET_NO":999,"REV_AT_EPOCH":1988,"BSTAR":0.00084837,"MEAN_MOTION_DOT":0.00107568,"MEAN_MOTION_DDOT":0},{"OBJECT_NAME":"KNACKSAT-2","OBJECT_ID":"1998-067XZ","EPOCH":"2026-04-08T18:37:58.202976","MEAN_MOTION":15.54485093,"ECCENTRICITY":0.0010872,"INCLINATION":51.6305,"RA_OF_ASC_NODE":282.0678,"ARG_OF_PERICENTER":298.0155,"MEAN_ANOMALY":61.9735,"EPHEMERIS_TYPE":0,"CLASSIFICATION_TYPE":"U","NORAD_CAT_ID":67683,"ELEMENT_SET_NO":999,"REV_AT_EPOCH":946,"BSTAR":0.00054294622,"MEAN_MOTION_DOT":0.00036179,"MEAN_MOTION_DDOT":0},{"OBJECT_NAME":"CORAL","OBJECT_ID":"1998-067YA","EPOCH":"2026-04-08T19:16:17.691456","MEAN_MOTION":15.59943936,"ECCENTRICITY":0.00141878,"INCLINATION":51.6284,"RA_OF_ASC_NODE":280.7446,"ARG_OF_PERICENTER":289.1392,"MEAN_ANOMALY":70.8065,"EPHEMERIS_TYPE":0,"CLASSIFICATION_TYPE":"U","NORAD_CAT_ID":67684,"ELEMENT_SET_NO":999,"REV_AT_EPOCH":948,"BSTAR":0.0010264622,"MEAN_MOTION_DOT":0.00085187,"MEAN_MOTION_DDOT":0},{"OBJECT_NAME":"GXIBA-1","OBJECT_ID":"1998-067YB","EPOCH":"2026-04-08T18:17:22.632864","MEAN_MOTION":15.55165607,"ECCENTRICITY":0.00128245,"INCLINATION":51.6304,"RA_OF_ASC_NODE":281.9723,"ARG_OF_PERICENTER":294.9218,"MEAN_ANOMALY":65.044,"EPHEMERIS_TYPE":0,"CLASSIFICATION_TYPE":"U","NORAD_CAT_ID":67685,"ELEMENT_SET_NO":999,"REV_AT_EPOCH":946,"BSTAR":0.00059755315,"MEAN_MOTION_DOT":0.00040949,"MEAN_MOTION_DDOT":0},{"OBJECT_NAME":"UITMSAT-2","OBJECT_ID":"1998-067YC","EPOCH":"2026-04-08T20:50:06.956448","MEAN_MOTION":15.56431458,"ECCENTRICITY":0.0009865,"INCLINATION":51.6303,"RA_OF_ASC_NODE":281.1836,"ARG_OF_PERICENTER":271.3376,"MEAN_ANOMALY":88.6486,"EPHEMERIS_TYPE":0,"CLASSIFICATION_TYPE":"U","NORAD_CAT_ID":67686,"ELEMENT_SET_NO":999,"REV_AT_EPOCH":948,"BSTAR":0.00068603,"MEAN_MOTION_DOT":0.0004934,"MEAN_MOTION_DDOT":0},{"OBJECT_NAME":"HMU-SAT2","OBJECT_ID":"1998-067YD","EPOCH":"2026-04-08T18:27:12.852864","MEAN_MOTION":15.54871884,"ECCENTRICITY":0.0009267,"INCLINATION":51.631,"RA_OF_ASC_NODE":282.0215,"ARG_OF_PERICENTER":273.355,"MEAN_ANOMALY":86.6381,"EPHEMERIS_TYPE":0,"CLASSIFICATION_TYPE":"U","NORAD_CAT_ID":67687,"ELEMENT_SET_NO":999,"REV_AT_EPOCH":938,"BSTAR":0.00058569172,"MEAN_MOTION_DOT":0.00039619,"MEAN_MOTION_DDOT":0},{"OBJECT_NAME":"LEOPARD","OBJECT_ID":"1998-067YE","EPOCH":"2026-04-08T21:04:51.493728","MEAN_MOTION":15.55857474,"ECCENTRICITY":0.0009494,"INCLINATION":51.6302,"RA_OF_ASC_NODE":281.2523,"ARG_OF_PERICENTER":271.8691,"MEAN_ANOMALY":88.1213,"EPHEMERIS_TYPE":0,"CLASSIFICATION_TYPE":"U","NORAD_CAT_ID":67688,"ELEMENT_SET_NO":999,"REV_AT_EPOCH":940,"BSTAR":0.00060389,"MEAN_MOTION_DOT":0.00042408,"MEAN_MOTION_DDOT":0},{"OBJECT_NAME":"CREW DRAGON 12","OBJECT_ID":"2026-031A","EPOCH":"2026-04-08T23:21:10.273248","MEAN_MOTION":15.48838774,"ECCENTRICITY":0.00063649,"INCLINATION":51.633,"RA_OF_ASC_NODE":282.6294,"ARG_OF_PERICENTER":289.616,"MEAN_ANOMALY":70.4141,"EPHEMERIS_TYPE":0,"CLASSIFICATION_TYPE":"U","NORAD_CAT_ID":67796,"ELEMENT_SET_NO":999,"REV_AT_EPOCH":56104,"BSTAR":0.00013220711,"MEAN_MOTION_DOT":6.802e-5,"MEAN_MOTION_DDOT":0},{"OBJECT_NAME":"PROGRESS-MS 33","OBJECT_ID":"2026-058A","EPOCH":"2026-04-08T23:21:10.273248","MEAN_MOTION":15.48838774,"ECCENTRICITY":0.00063649,"INCLINATION":51.633,"RA_OF_ASC_NODE":282.6294,"ARG_OF_PERICENTER":289.616,"MEAN_ANOMALY":70.4141,"EPHEMERIS_TYPE":0,"CLASSIFICATION_TYPE":"U","NORAD_CAT_ID":68319,"ELEMENT_SET_NO":999,"REV_AT_EPOCH":224,"BSTAR":0.00013220711,"MEAN_MOTION_DOT":6.802e-5,"MEAN_MOTION_DDOT":0}]
